OBJECT_NAME,OBJECT_ID,EPOCH,MEAN_MOTION,ECCENTRICITY,INCLINATION,RA_OF_ASC_NODE,ARG_OF_PERICENTER,MEAN_ANOMALY,EPHEMERIS_TYPE,CLASSIFICATION_TYPE,NORAD_CAT_ID,ELEMENT_SET_NO,REV_AT_EPOCH,BSTAR,MEAN_MOTION_DOT,MEAN_MOTION_DDOT
STARLINK-33903,2025-092AA,2025-05-09T04:00:01.999584,15.97434814,.0001533,42.9997,103.4543,271.1774,133.5740,0,U,63828,999,195,.22622E-3,.101818E-2,.12564E-4
STARLINK-33889,2025-092AB,2025-05-09T04:00:01.999584,15.97836970,.0001536,42.9997,103.4439,272.8953,135.9363,0,U,63829,999,185,.20104E-4,.682E-4,.85001E-5
STARLINK-33984,2025-092AC,2025-05-08T22:00:01.999584,15.98204611,.0001584,43.0004,105.0157,265.2198,140.9507,0,U,63830,999,186,-.18355E-2,-.884928E-2,.25754E-3
STARLINK-33940,2025-092AD,2025-05-08T22:00:01.999584,15.98621859,.0001563,43.0003,105.0059,265.2188,144.7968,0,U,63831,999,191,-.18376E-2,-.906796E-2,.27042E-3
STARLINK-33978,2025-092AE,2025-05-08T22:00:01.999584,15.98345436,.0001573,43.0003,105.0121,265.1990,142.2681,0,U,63832,999,191,-.18346E-2,-.891462E-2,.26139E-3
